[{"OBJECT_NAME":"STARLINK-33674","OBJECT_ID":"2025-057Y","EPOCH":"2026-01-30T06:54:48.841056","MEAN_MOTION":15.2757591,"ECCENTRICITY":0.00014147,"INCLINATION":42.991,"RA_OF_ASC_NODE":247.7856,"ARG_OF_PERICENTER":59.0535,"MEAN_ANOMALY":301.0455,"EPHEMERIS_TYPE":0,"CLASSIFICATION_TYPE":"U","NORAD_CAT_ID":63329,"ELEMENT_SET_NO":999,"REV_AT_EPOCH":4990,"BSTAR":0.00080008552,"MEAN_MOTION_DOT":0.00021817,"MEAN_MOTION_DDOT":0},{"OBJECT_NAME":"STARLINK-32840","OBJECT_ID":"2025-063A","EPOCH":"2026-01-29T22:01:41.818368","MEAN_MOTION":15.30195067,"ECCENTRICITY":0.0001139,"INCLINATION":53.1555,"RA_OF_ASC_NODE":229.7067,"ARG_OF_PERICENTER":92.7926,"MEAN_ANOMALY":267.3206,"EPHEMERIS_TYPE":0,"CLASSIFICATION_TYPE":"U","NORAD_CAT_ID":63363,"ELEMENT_SET_NO":999,"REV_AT_EPOCH":4884,"BSTAR":0.0015045964,"MEAN_MOTION_DOT":0.00044463,"MEAN_MOTION_DDOT":0},{"OBJECT_NAME":"STARLINK-32543","OBJECT_ID":"2025-063B","EPOCH":"2026-01-30T05:50:26.677248","MEAN_MOTION":15.3020064,"ECCENTRICITY":0.0001031,"INCLINATION":53.155,"RA_OF_ASC_NODE":228.18,"ARG_OF_PERICENTER":82.7663,"MEAN_ANOMALY":277.3454,"EPHEMERIS_TYPE":0,"CLASSIFICATION_TYPE":"U","NORAD_CAT_ID":63364,"ELEMENT_SET_NO":999,"REV_AT_EPOCH":4890,"BSTAR":0.0010184633,"MEAN_MOTION_DOT":0.00029927,"MEAN_MOTION_DDOT":0},{"OBJECT_NAME":"STARLINK-33741","OBJECT_ID":"2025-063C","EPOCH":"2026-01-29T22:33:00.933696","MEAN_MOTION":15.30180408,"ECCENTRICITY":9.087e-5,"INCLINATION":53.1579,"RA_OF_ASC_NODE":232.6682,"ARG_OF_PERICENTER":80.0399,"MEAN_ANOMALY":280.0704,"EPHEMERIS_TYPE":0,"CLASSIFICATION_TYPE":"U","NORAD_CAT_ID":63365,"ELEMENT_SET_NO":999,"REV_AT_EPOCH":4882,"BSTAR":0.00036866802,"MEAN_MOTION_DOT":0.00010569,"MEAN_MOTION_DDOT":0},{"OBJECT_NAME":"STARLINK-33742","OBJECT_ID":"2025-063D","EPOCH":"2026-01-29T23:19:57.299808","MEAN_MOTION":15.30195184,"ECCENTRICITY":9.283e-5,"INCLINATION":53.1563,"RA_OF_ASC_NODE":232.1613,"ARG_OF_PERICENTER":70.5532,"MEAN_ANOMALY":289.5569,"EPHEMERIS_TYPE":0,"CLASSIFICATION_TYPE":"U","NORAD_CAT_ID":63366,"ELEMENT_SET_NO":999,"REV_AT_EPOCH":4878,"BSTAR":0.00099846677,"MEAN_MOTION_DOT":0.00029325,"MEAN_MOTION_DDOT":0},{"OBJECT_NAME":"STARLINK-33734","OBJECT_ID":"2025-063E","EPOCH":"2026-01-29T23:45:39.327264","MEAN_MOTION":15.30197585,"ECCENTRICITY":8.748e-5,"INCLINATION":53.1577,"RA_OF_ASC_NODE":242.196,"ARG_OF_PERICENTER":87.2903,"MEAN_ANOMALY":272.8198,"EPHEMERIS_TYPE":0,"CLASSIFICATION_TYPE":"U","NORAD_CAT_ID":63367,"ELEMENT_SET_NO":999,"REV_AT_EPOCH":4864,"BSTAR":0.0012908564,"MEAN_MOTION_DOT":0.00038065,"MEAN_MOTION_DDOT":0},{"OBJECT_NAME":"STARLINK-33578","OBJECT_ID":"2025-063F","EPOCH":"2026-01-29T22:45:45.739584","MEAN_MOTION":15.30192381,"ECCENTRICITY":0.00010162,"INCLINATION":53.1573,"RA_OF_ASC_NODE":229.8856,"ARG_OF_PERICENTER":86.6956,"MEAN_ANOMALY":273.4161,"EPHEMERIS_TYPE":0,"CLASSIFICATION_TYPE":"U","NORAD_CAT_ID":63368,"ELEMENT_SET_NO":999,"REV_AT_EPOCH":4880,"BSTAR":0.0010790637,"MEAN_MOTION_DOT":0.00031729,"MEAN_MOTION_DDOT":0},{"OBJECT_NAME":"STARLINK-33626","OBJECT_ID":"2025-063G","EPOCH":"2026-01-29T23:03:59.696640","MEAN_MOTION":15.30192757,"ECCENTRICITY":0.00010965,"INCLINATION":53.157,"RA_OF_ASC_NODE":229.9578,"ARG_OF_PERICENTER":93.3294,"MEAN_ANOMALY":266.7832,"EPHEMERIS_TYPE":0,"CLASSIFICATION_TYPE":"U","NORAD_CAT_ID":63369,"ELEMENT_SET_NO":999,"REV_AT_EPOCH":4881,"BSTAR":0.0009856543,"MEAN_MOTION_DOT":0.0002894,"MEAN_MOTION_DDOT":0},{"OBJECT_NAME":"STARLINK-33657","OBJECT_ID":"2025-063H","EPOCH":"2026-01-29T20:40:45.011712","MEAN_MOTION":15.30219098,"ECCENTRICITY":8.693e-5,"INCLINATION":53.1557,"RA_OF_ASC_NODE":232.8967,"ARG_OF_PERICENTER":61.9234,"MEAN_ANOMALY":298.1854,"EPHEMERIS_TYPE":0,"CLASSIFICATION_TYPE":"U","NORAD_CAT_ID":63370,"ELEMENT_SET_NO":999,"REV_AT_EPOCH":4876,"BSTAR":0.0014836949,"MEAN_MOTION_DOT":0.00043869,"MEAN_MOTION_DDOT":0},{"OBJECT_NAME":"STARLINK-33648","OBJECT_ID":"2025-063J","EPOCH":"2026-01-30T06:18:43.259616","MEAN_MOTION":15.30209359,"ECCENTRICITY":0.00013149,"INCLINATION":53.157,"RA_OF_ASC_NODE":231.1323,"ARG_OF_PERICENTER":86.5589,"MEAN_ANOMALY":273.5562,"EPHEMERIS_TYPE":0,"CLASSIFICATION_TYPE":"U","NORAD_CAT_ID":63371,"ELEMENT_SET_NO":999,"REV_AT_EPOCH":4887,"BSTAR":0.0011573336,"MEAN_MOTION_DOT":0.00034085,"MEAN_MOTION_DDOT":0},{"OBJECT_NAME":"STARLINK-33614","OBJECT_ID":"2025-063K","EPOCH":"2026-01-30T06:32:59.868096","MEAN_MOTION":15.30206384,"ECCENTRICITY":0.00025169,"INCLINATION":53.1578,"RA_OF_ASC_NODE":228.3513,"ARG_OF_PERICENTER":85.32,"MEAN_ANOMALY":274.8088,"EPHEMERIS_TYPE":0,"CLASSIFICATION_TYPE":"U","NORAD_CAT_ID":63372,"ELEMENT_SET_NO":999,"REV_AT_EPOCH":4891,"BSTAR":0.0012788787,"MEAN_MOTION_DOT":0.00037719,"MEAN_MOTION_DDOT":0},{"OBJECT_NAME":"STARLINK-33617","OBJECT_ID":"2025-063L","EPOCH":"2026-01-29T22:36:40.075200","MEAN_MOTION":15.30219222,"ECCENTRICITY":0.00017933,"INCLINATION":53.1596,"RA_OF_ASC_NODE":229.8394,"ARG_OF_PERICENTER":70.3369,"MEAN_ANOMALY":289.7825,"EPHEMERIS_TYPE":0,"CLASSIFICATION_TYPE":"U","NORAD_CAT_ID":63373,"ELEMENT_SET_NO":999,"REV_AT_EPOCH":4881,"BSTAR":0.0013932148,"MEAN_MOTION_DOT":0.00041158,"MEAN_MOTION_DDOT":0},{"OBJECT_NAME":"STARLINK-33618","OBJECT_ID":"2025-063M","EPOCH":"2026-01-29T22:00:01.999584","MEAN_MOTION":15.30160414,"ECCENTRICITY":0.00014439,"INCLINATION":53.1577,"RA_OF_ASC_NODE":229.9241,"ARG_OF_PERICENTER":79.4932,"MEAN_ANOMALY":157.9427,"EPHEMERIS_TYPE":0,"CLASSIFICATION_TYPE":"U","NORAD_CAT_ID":63374,"ELEMENT_SET_NO":999,"REV_AT_EPOCH":591,"BSTAR":0.00145311,"MEAN_MOTION_DOT":0.00042874,"MEAN_MOTION_DDOT":0},{"OBJECT_NAME":"STARLINK-33621","OBJECT_ID":"2025-063N","EPOCH":"2026-01-29T22:30:33.962112","MEAN_MOTION":15.3019586,"ECCENTRICITY":0.0001222,"INCLINATION":53.1579,"RA_OF_ASC_NODE":229.8145,"ARG_OF_PERICENTER":88.2255,"MEAN_ANOMALY":271.8885,"EPHEMERIS_TYPE":0,"CLASSIFICATION_TYPE":"U","NORAD_CAT_ID":63375,"ELEMENT_SET_NO":999,"REV_AT_EPOCH":4881,"BSTAR":0.0014970726,"MEAN_MOTION_DOT":0.00044238,"MEAN_MOTION_DDOT":0},{"OBJECT_NAME":"STARLINK-33539","OBJECT_ID":"2025-063P","EPOCH":"2026-01-29T20:48:12.916224","MEAN_MOTION":15.3019331,"ECCENTRICITY":0.00010279,"INCLINATION":53.1561,"RA_OF_ASC_NODE":242.8477,"ARG_OF_PERICENTER":166.4635,"MEAN_ANOMALY":193.6394,"EPHEMERIS_TYPE":0,"CLASSIFICATION_TYPE":"U","NORAD_CAT_ID":63376,"ELEMENT_SET_NO":999,"REV_AT_EPOCH":4862,"BSTAR":0.0015591176,"MEAN_MOTION_DOT":0.00046095,"MEAN_MOTION_DDOT":0},{"OBJECT_NAME":"STARLINK-33634","OBJECT_ID":"2025-063Q","EPOCH":"2026-01-29T23:15:23.642496","MEAN_MOTION":15.30206321,"ECCENTRICITY":7.823e-5,"INCLINATION":53.1561,"RA_OF_ASC_NODE":232.1403,"ARG_OF_PERICENTER":70.5679,"MEAN_ANOMALY":289.5407,"EPHEMERIS_TYPE":0,"CLASSIFICATION_TYPE":"U","NORAD_CAT_ID":63377,"ELEMENT_SET_NO":999,"REV_AT_EPOCH":4883,"BSTAR":0.00037318234,"MEAN_MOTION_DOT":0.00010712,"MEAN_MOTION_DDOT":0}]
