STARLINK-33674          
1 63329U 25057Y   26030.28806529  .00021817  00000+0  80009-3 0  9991
2 63329  42.9910 247.7856 0001414  59.0535 301.0455 15.27575910 49908
STARLINK-32840          
1 63363U 25063A   26029.91784512  .00044463  00000+0  15046-2 0  9991
2 63363  53.1555 229.7067 0001139  92.7926 267.3206 15.30195067 48846
STARLINK-32543          
1 63364U 25063B   26030.24336432  .00029927  00000+0  10185-2 0  9991
2 63364  53.1550 228.1800 0001031  82.7663 277.3454 15.30200640 48905
STARLINK-33741          
1 63365U 25063C   26029.93959414  .00010569  00000+0  36867-3 0  9995
2 63365  53.1579 232.6682 0000908  80.0399 280.0704 15.30180408 48823
STARLINK-33742          
1 63366U 25063D   26029.97219097  .00029325  00000+0  99847-3 0  9993
2 63366  53.1563 232.1613 0000928  70.5532 289.5569 15.30195184 48786
STARLINK-33734          
1 63367U 25063E   26029.99003851  .00038065  00000+0  12909-2 0  9999
2 63367  53.1577 242.1960 0000874  87.2903 272.8198 15.30197585 48640
STARLINK-33578          
1 63368U 25063F   26029.94844606  .00031729  00000+0  10791-2 0  9993
2 63368  53.1573 229.8856 0001016  86.6956 273.4161 15.30192381 48807
STARLINK-33626          
1 63369U 25063G   26029.96110760  .00028940  00000+0  98565-3 0  9990
2 63369  53.1570 229.9578 0001096  93.3294 266.7832 15.30192757 48813
STARLINK-33657          
1 63370U 25063H   26029.86163208  .00043869  00000+0  14837-2 0  9992
2 63370  53.1557 232.8967 0000869  61.9234 298.1854 15.30219098 48762
STARLINK-33648          
1 63371U 25063J   26030.26300069  .00034085  00000+0  11573-2 0  9991
2 63371  53.1570 231.1323 0001314  86.5589 273.5562 15.30209359 48872
STARLINK-33614          
1 63372U 25063K   26030.27291514  .00037719  00000+0  12789-2 0  9994
2 63372  53.1578 228.3513 0002516  85.3200 274.8088 15.30206384 48919
STARLINK-33617          
1 63373U 25063L   26029.94213050  .00041158  00000+0  13932-2 0  9999
2 63373  53.1596 229.8394 0001793  70.3369 289.7825 15.30219222 48817
STARLINK-33618          
1 63374U 25063M   26029.91668981  .00042874  00000+0  14531-2 0  9996
2 63374  53.1577 229.9241 0001443  79.4932 157.9427 15.30160414  5913
STARLINK-33621          
1 63375U 25063N   26029.93789308  .00044238  00000+0  14971-2 0  9990
2 63375  53.1579 229.8145 0001222  88.2255 271.8885 15.30195860 48812
STARLINK-33539          
1 63376U 25063P   26029.86681616  .00046095  00000+0  15591-2 0  9998
2 63376  53.1561 242.8477 0001027 166.4635 193.6394 15.30193310 48624
STARLINK-33634          
1 63377U 25063Q   26029.96902364  .00010712  00000+0  37318-3 0  9995
2 63377  53.1561 232.1403 0000782  70.5679 289.5407 15.30206321 48836
